{
  "norad_id": 59930,
  "name": "STARLINK-31956",
  "history": [
    {
      "epoch": "2026-03-28T17:16:43.324032Z",
      "apogee_km": 483.7172898786848,
      "perigee_km": 482.36893076340493,
      "latitude_deg": -1.252232513395906e-06,
      "longitude_deg": 139.69843496849734,
      "height_km": 482.9086961639636,
      "semi_major_axis_km": 6861.180110321045,
      "eccentricity": 9.826e-05,
      "inclination_deg": 43.0008,
      "raan_deg": 225.0153,
      "arg_perigee_deg": 262.3993,
      "mean_anomaly_deg": 97.6747,
      "mean_motion_rev_day": 15.27581999
    }
  ]
}